STARLINK-31801          
1 59647U 24082S   26068.21146506  .00006977  00000+0  26307-3 0  9993
2 59647  43.0017 142.9476 0000763 260.5473  99.5293 15.27548792104781
BANDWAGON-4 OBJECT N    
1 66305U 25248N   26068.03100984  .00024115  00000+0  97341-3 0  9997
2 66305  45.4084 294.9612 0013521 206.7837 153.2354 15.24369076 17177
